TYVAK-0130              
1 48606U 21041BF  26068.48452211  .00008857  00000+0  35198-3 0  9997
2 48606  52.9967 128.6030 0008953 215.1647 144.8760 15.26049141265157
STARLINK-34161          
1 64017U 25101Z   26068.14569337  .00029321  00000+0  10702-2 0  9995
2 64017  43.0052   0.8898 0001807 273.3372  86.7273 15.27599371 46978
